{
  "type": "FeatureCollection",
  "features": [
    {
      "type": "Feature",
      "properties": {
        "norad_id": 41890,
        "name": "CYGFM07",
        "group": "weather",
        "lat": 30.794511080882835,
        "lon": 89.61446950878438,
        "alt_km": 416.7062255723313,
        "timestamp": "2025-12-20T20:38:44.088471+00:00",
        "meta_object_name": "CYGFM07",
        "meta_object_id": "2016-078G",
        "meta_epoch": "2025-12-20T06:14:08.524896",
        "meta_mean_motion": 15.50300971,
        "meta_eccentricity": 0.00100829,
        "meta_inclination": 34.9485,
        "meta_ra_of_asc_node": 332.1364,
        "meta_arg_of_pericenter": 279.4388,
        "meta_mean_anomaly": 80.5194,
        "meta_ephemeris_type": 0,
        "meta_classification_type": "U",
        "meta_norad_cat_id": 41890,
        "meta_element_set_no": 999,
        "meta_rev_at_epoch": 50112,
        "meta_bstar": 0.0002906107,
        "meta_mean_motion_dot": 0.00017004,
        "meta_mean_motion_ddot": 0,
        "tle_line1": "1 41890U 16078G   25354.25982089  .00017004  00000+0  29061-3 0  9998",
        "tle_line2": "2 41890  34.9485 332.1364 0010082 279.4388  80.5194 15.50300971501128"
      },
      "geometry": {
        "type": "Point",
        "coordinates": [
          89.61446950878438,
          30.794511080882835
        ]
      }
    },
    {
      "type": "Feature",
      "properties": {
        "norad_id": 41891,
        "name": "CYGFM03",
        "group": "weather",
        "lat": -26.680968443783414,
        "lon": -75.90796268151522,
        "alt_km": 412.3326617778175,
        "timestamp": "2025-12-20T20:38:44.088481+00:00",
        "meta_object_name": "CYGFM03",
        "meta_object_id": "2016-078H",
        "meta_epoch": "2025-12-20T05:24:41.758848",
        "meta_mean_motion": 15.50196559,
        "meta_eccentricity": 0.00096734,
        "meta_inclination": 34.9438,
        "meta_ra_of_asc_node": 334.2852,
        "meta_arg_of_pericenter": 266.9211,
        "meta_mean_anomaly": 93.0404,
        "meta_ephemeris_type": 0,
        "meta_classification_type": "U",
        "meta_norad_cat_id": 41891,
        "meta_element_set_no": 999,
        "meta_rev_at_epoch": 50109,
        "meta_bstar": 0.00029188534,
        "meta_mean_motion_dot": 0.00017012,
        "meta_mean_motion_ddot": 0,
        "tle_line1": "1 41891U 16078H   25354.22548332  .00017012  00000+0  29189-3 0  9995",
        "tle_line2": "2 41891  34.9438 334.2852 0009673 266.9211  93.0404 15.50196559501096"
      },
      "geometry": {
        "type": "Point",
        "coordinates": [
          -75.90796268151522,
          -26.680968443783414
        ]
      }
    },
    {
      "type": "Feature",
      "properties": {
        "norad_id": 43010,
        "name": "FENGYUN 3D",
        "group": "weather",
        "lat": 80.56240360126222,
        "lon": -110.94362438567313,
        "alt_km": 818.6338031827645,
        "timestamp": "2025-12-20T20:38:44.088493+00:00",
        "meta_object_name": "FENGYUN 3D",
        "meta_object_id": "2017-072A",
        "meta_epoch": "2025-12-20T13:28:14.994624",
        "meta_mean_motion": 14.1968462,
        "meta_eccentricity": 0.00013363,
        "meta_inclination": 98.9895,
        "meta_ra_of_asc_node": 320.9884,
        "meta_arg_of_pericenter": 157.2317,
        "meta_mean_anomaly": 202.8918,
        "meta_ephemeris_type": 0,
        "meta_classification_type": "U",
        "meta_norad_cat_id": 43010,
        "meta_element_set_no": 999,
        "meta_rev_at_epoch": 41964,
        "meta_bstar": -0.00011687184,
        "meta_mean_motion_dot": -2.93e-06,
        "meta_mean_motion_ddot": 0,
        "tle_line1": "1 43010U 17072A   25354.56128466 -.00000293  00000+0 -11687-3 0  9993",
        "tle_line2": "2 43010  98.9895 320.9884 0001336 157.2317 202.8918 14.19684620419646"
      },
      "geometry": {
        "type": "Point",
        "coordinates": [
          -110.94362438567313,
          80.56240360126222
        ]
      }
    },
    {
      "type": "Feature",
      "properties": {
        "norad_id": 43013,
        "name": "NOAA 20 (JPSS-1)",
        "group": "weather",
        "lat": -53.85122421499997,
        "lon": 98.88188334387168,
        "alt_km": 835.3532661433992,
        "timestamp": "2025-12-20T20:38:44.088504+00:00",
        "meta_object_name": "NOAA 20 (JPSS-1)",
        "meta_object_id": "2017-073A",
        "meta_epoch": "2025-12-20T11:05:06.266112",
        "meta_mean_motion": 14.19527634,
        "meta_eccentricity": 0.00021265,
        "meta_inclination": 98.761,
        "meta_ra_of_asc_node": 290.6745,
        "meta_arg_of_pericenter": 76.1689,
        "meta_mean_anomaly": 283.9724,
        "meta_ephemeris_type": 0,
        "meta_classification_type": "U",
        "meta_norad_cat_id": 43013,
        "meta_element_set_no": 999,
        "meta_rev_at_epoch": 41911,
        "meta_bstar": 4.5119244e-05,
        "meta_mean_motion_dot": 5.1e-07,
        "meta_mean_motion_ddot": 0,
        "tle_line1": "1 43013U 17073A   25354.46187808  .00000051  00000+0  45119-4 0  9999",
        "tle_line2": "2 43013  98.7610 290.6745 0002126  76.1689 283.9724 14.19527634419118"
      },
      "geometry": {
        "type": "Point",
        "coordinates": [
          98.88188334387168,
          -53.85122421499997
        ]
      }
    },
    {
      "type": "Feature",
      "properties": {
        "norad_id": 43226,
        "name": "GOES 17",
        "group": "weather",
        "lat": -0.33165314832908166,
        "lon": -50.12641015290748,
        "alt_km": 35775.06241566951,
        "timestamp": "2025-12-20T20:38:44.088516+00:00",
        "meta_object_name": "GOES 17",
        "meta_object_id": "2018-022A",
        "meta_epoch": "2025-12-20T12:43:03.950112",
        "meta_mean_motion": 1.00270686,
        "meta_eccentricity": 0.00030892,
        "meta_inclination": 0.4765,
        "meta_ra_of_asc_node": 89.1513,
        "meta_arg_of_pericenter": 191.3279,
        "meta_mean_anomaly": 270.1446,
        "meta_ephemeris_type": 0,
        "meta_classification_type": "U",
        "meta_norad_cat_id": 43226,
        "meta_element_set_no": 999,
        "meta_rev_at_epoch": 2863,
        "meta_bstar": 0,
        "meta_mean_motion_dot": -1.59e-06,
        "meta_mean_motion_ddot": 0,
        "tle_line1": "1 43226U 18022A   25354.52990683 -.00000159  00000+0  00000+0 0  9995",
        "tle_line2": "2 43226   0.4765  89.1513 0003089 191.3279 270.1446  1.00270686 28633"
      },
      "geometry": {
        "type": "Point",
        "coordinates": [
          -50.12641015290748,
          -0.33165314832908166
        ]
      }
    },
    {
      "type": "Feature",
      "properties": {
        "norad_id": 43491,
        "name": "FENGYUN 2H",
        "group": "weather",
        "lat": 1.5874508034995454,
        "lon": 118.66719561627886,
        "alt_km": 35792.32671721734,
        "timestamp": "2025-12-20T20:38:44.088529+00:00",
        "meta_object_name": "FENGYUN 2H",
        "meta_object_id": "2018-050A",
        "meta_epoch": "2025-12-20T13:36:28.939104",
        "meta_mean_motion": 1.00271219,
        "meta_eccentricity": 0.00023795,
        "meta_inclination": 2.5701,
        "meta_ra_of_asc_node": 81.2474,
        "meta_arg_of_pericenter": 165.8321,
        "meta_mean_anomaly": 125.7917,
        "meta_ephemeris_type": 0,
        "meta_classification_type": "U",
        "meta_norad_cat_id": 43491,
        "meta_element_set_no": 999,
        "meta_rev_at_epoch": 2764,
        "meta_bstar": 0,
        "meta_mean_motion_dot": -1.08e-06,
        "meta_mean_motion_ddot": 0,
        "tle_line1": "1 43491U 18050A   25354.56700161 -.00000108  00000+0  00000+0 0  9998",
        "tle_line2": "2 43491   2.5701  81.2474 0002379 165.8321 125.7917  1.00271219 27645"
      },
      "geometry": {
        "type": "Point",
        "coordinates": [
          118.66719561627886,
          1.5874508034995454
        ]
      }
    },
    {
      "type": "Feature",
      "properties": {
        "norad_id": 43689,
        "name": "METOP-C",
        "group": "weather",
        "lat": 70.82395840505721,
        "lon": 26.40941522585498,
        "alt_km": 813.0340111077685,
        "timestamp": "2025-12-20T20:38:44.088540+00:00",
        "meta_object_name": "METOP-C",
        "meta_object_id": "2018-087A",
        "meta_epoch": "2025-12-20T13:32:48.886944",
        "meta_mean_motion": 14.21487156,
        "meta_eccentricity": 8.696e-05,
        "meta_inclination": 98.6918,
        "meta_ra_of_asc_node": 52.2138,
        "meta_arg_of_pericenter": 25.8359,
        "meta_mean_anomaly": 334.2861,
        "meta_ephemeris_type": 0,
        "meta_classification_type": "U",
        "meta_norad_cat_id": 43689,
        "meta_element_set_no": 999,
        "meta_rev_at_epoch": 36945,
        "meta_bstar": 6.2955532e-05,
        "meta_mean_motion_dot": 9.4e-07,
        "meta_mean_motion_ddot": 0,
        "tle_line1": "1 43689U 18087A   25354.56445471  .00000094  00000+0  62956-4 0  9993",
        "tle_line2": "2 43689  98.6918  52.2138 0000869  25.8359 334.2861 14.21487156369452"
      },
      "geometry": {
        "type": "Point",
        "coordinates": [
          26.40941522585498,
          70.82395840505721
        ]
      }
    }
  ]
}